     2.100          NAVIGATION                              RINEX VERSION / TYPE
fic2rin                                 02/15/2009 02:10:43 PGM / RUN BY / DATE
                                                            END OF HEADER
31 09  2 14 20  0  0.0 -.515668652952D-04 -.136424205266D-11  .000000000000D+00
     .103000000000D+03  .462500000000D+01  .418624580251D-08 -.102409288771D+01
     .210478901863D-06  .720614928287D-02  .929087400436D-05  .515364552116D+04
     .590400000000D+06 -.968575477600D-07 -.166325415819D+01  .949949026108D-07
     .971214274219D+00  .210875000000D+03 -.118897170766D+01 -.799354724904D-08
     .445018536808D-09  .100000000000D+01  .151800000000D+04  .000000000000D+00
     .485000000000D+01  .000000000000D+00 -.130385160446D-07  .103000000000D+03
     .583206000000D+06  .400000000000D+01
32 09  2 14 20  0  0.0  .295378267765D-03 -.341060513165D-11  .000000000000D+00
     .170000000000D+02  .121875000000D+02  .482234372712D-08 -.168570275754D+00
     .732019543648D-06  .135277553927D-01  .371970236301D-05  .515363207054D+04
     .590400000000D+06 -.201165676117D-06  .261369610312D+01 -.149011611938D-06
     .965380661625D+00  .314593750000D+03 -.119758499042D+01 -.861393023334D-08
    -.939324840936D-10  .100000000000D+01  .151800000000D+04  .000000000000D+00
     .240000000000D+01  .000000000000D+00 -.325962901115D-08  .170000000000D+02
     .583206000000D+06  .400000000000D+01
10 09  2 14 19 59 44.0 -.111781992018D-04 -.682121026330D-12  .000000000000D+00
     .100000000000D+01  .225937500000D+02  .485413076546D-08  .171888822762D+01
     .124983489513D-05  .855419051368D-02  .418908894062D-05  .515378859329D+04
     .590384000000D+06 -.173225998878D-06  .255309660592D+01  .126659870148D-06
     .959691867681D+00  .302656250000D+03  .593956434750D+00 -.839570685775D-08
    -.181436128972D-09  .100000000000D+01  .151800000000D+04  .000000000000D+00
     .240000000000D+01  .000000000000D+00 -.279396772385D-08  .100000000000D+01
     .587436000000D+06  .400000000000D+01
10 09  2 14 21 59 44.0 -.111833214760D-04 -.682121026330D-12  .000000000000D+00
     .200000000000D+01  .267812500000D+02  .483162982820D-08  .276903912271D+01
     .124983489513D-05  .855410692748D-02  .394135713577D-05  .515378822708D+04
     .597584000000D+06 -.119209289551D-06  .255303642732D+01 -.745058059692D-07
     .959691556080D+00  .303656250000D+03  .593919247372D+00 -.822677124947D-08
    -.118219210019D-09  .100000000000D+01  .151800000000D+04  .000000000000D+00
     .240000000000D+01  .000000000000D+00 -.279396772385D-08  .200000000000D+01
     .590406000000D+06  .400000000000D+01
 2 09  2 14 22  0  0.0  .157396774739D-03 -.125055521494D-11  .000000000000D+00
     .510000000000D+02  .838125000000D+02  .495163482689D-08  .191949479571D+01
     .429898500443D-05  .895932712592D-02  .914931297302D-05  .515362264252D+04
     .597600000000D+06  .912696123123D-07  .146884794309D+01  .104308128357D-06
     .941539787049D+00  .189031250000D+03  .272074205266D+01 -.821069915143D-08
     .110718897601D-10  .100000000000D+01  .151800000000D+04  .000000000000D+00
     .240000000000D+01  .000000000000D+00 -.172294676304D-07  .510000000000D+02
     .590406000000D+06  .400000000000D+01
 3 09  2 14 22  0  0.0  .353116076440D-03  .534328137292D-11  .000000000000D+00
     .370000000000D+02 -.329687500000D+02  .536700927176D-08  .155785341803D+01
    -.172294676304D-05  .116546503268D-01  .913999974728D-05  .515373631287D+04
     .597600000000D+06 -.249594449997D-06  .322384984834D+00  .540167093277D-07
     .926573254421D+00  .186375000000D+03  .890878108878D+00 -.847892460982D-08
    -.245010205659D-09  .100000000000D+01  .151800000000D+04  .000000000000D+00
     .340000000000D+01  .000000000000D+00 -.419095158577D-08  .370000000000D+02
     .590406000000D+06  .400000000000D+01
 4 09  2 14 22  0  0.0 -.336791388690D-03 -.139834810398D-10  .000000000000D+00
     .320000000000D+02  .826250000000D+02  .495234914236D-08 -.152630318607D+01
     .411272048950D-05  .864057138097D-02  .870600342751D-05  .515368612862D+04
     .597600000000D+06  .819563865662D-07  .148735666560D+01 -.949949026108D-07
     .940767689608D+00  .195093750000D+03  .474206990293D+00 -.821248494010D-08
     .245367363393D-09  .100000000000D+01  .151800000000D+04  .000000000000D+00
     .240000000000D+01  .000000000000D+00 -.605359673500D-08  .320000000000D+02
     .590406000000D+06  .400000000000D+01
 5 09  2 14 22  0  0.0 -.676055438817D-03 -.477484718431D-10  .000000000000D+00
     .880000000000D+02 -.202500000000D+02  .502806658201D-08 -.191664275061D+01
    -.962987542152D-06  .940008356702D-02  .535510480404D-05  .515361706734D+04
     .597600000000D+06  .169500708580D-06 -.708315849707D+00  .428408384323D-07
     .945131954597D+00  .266062500000D+03  .129655848632D+01 -.825677249915D-08
     .155006456641D-09  .100000000000D+01  .151800000000D+04  .000000000000D+00
     .485000000000D+01  .000000000000D+00 -.419095158577D-08  .880000000000D+02
     .590406000000D+06  .400000000000D+01
 6 09  2 14 22  0  0.0  .564670190215D-04 -.146656020661D-10  .000000000000D+00
     .940000000000D+02 -.207187500000D+02  .509521223604D-08 -.220576458734D+01
    -.972300767899D-06  .572473765351D-02  .903755426407D-05  .515371138954D+04
     .597600000000D+06  .819563865662D-07  .389120201835D+00  .104308128357D-06
     .934066783105D+00  .186093750000D+03 -.145515791913D+01 -.815319675623D-08
    -.148934775160D-09  .100000000000D+01  .151800000000D+04  .000000000000D+00
     .240000000000D+01  .000000000000D+00 -.465661287308D-08  .940000000000D+02
     .590406000000D+06  .400000000000D+01
 7 09  2 14 22  0  0.0  .226469710469D-04 -.341060513165D-12  .000000000000D+00
     .350000000000D+02 -.893750000000D+01  .427089218552D-08  .970827854648D-01
    -.618398189545D-06  .230935437139D-02  .890158116817D-05  .515368013954D+04
     .597600000000D+06  .409781932831D-07 -.166070231265D+01  .186264514923D-07
     .965808802156D+00  .210000000000D+03  .292820388998D+01 -.798033241288D-08
     .271797035723D-09  .100000000000D+01  .151800000000D+04  .000000000000D+00
     .240000000000D+01  .000000000000D+00 -.107102096081D-07  .350000000000D+02
     .590406000000D+06  .400000000000D+01
 8 09  2 14 22  0  0.0 -.190668273717D-03 -.170530256582D-11  .000000000000D+00
     .220000000000D+02 -.115312500000D+02  .378765777115D-08 -.571567307410D+00
    -.733882188797D-06  .104795485968D-01  .854209065437D-05  .515368137169D+04
     .597600000000D+06  .152736902237D-06 -.160242941989D+01 -.163912773132D-06
     .986968946647D+00  .227687500000D+03  .297923307951D+01 -.777282376931D-08
     .327870799992D-09  .100000000000D+01  .151800000000D+04  .000000000000D+00
     .240000000000D+01  .000000000000D+00 -.419095158577D-08  .220000000000D+02
     .590406000000D+06  .400000000000D+01
 9 09  2 14 22  0  0.0  .404692254961D-04  .204636307899D-11  .000000000000D+00
     .900000000000D+01 -.206250000000D+01  .421303263258D-08 -.824695455053D+00
     .651925802231D-07  .201708633685D-01  .843405723572D-05  .515365088463D+04
     .597600000000D+06 -.230967998505D-06 -.169546635473D+01  .227242708206D-06
     .974773309598D+00  .227781250000D+03  .146101345648D+01 -.822462830307D-08
     .288940606965D-09  .100000000000D+01  .151800000000D+04  .000000000000D+00
     .240000000000D+01  .000000000000D+00 -.558793544769D-08  .900000000000D+01
     .590406000000D+06  .400000000000D+01
11 09  2 14 22  0  0.0  .749528408051D-05 -.125055521494D-11  .000000000000D+00
     .850000000000D+02  .754375000000D+02  .616239954582D-08 -.349025584717D-01
     .393949449062D-05  .920522760134D-02  .925362110138D-05  .515367560577D+04
     .597600000000D+06  .521540641785D-07  .127377565115D+01  .102445483208D-06
     .889699043719D+00  .163843750000D+03  .684846360291D+00 -.891215694139D-08
     .339299847486D-10  .100000000000D+01  .151800000000D+04  .000000000000D+00
     .340000000000D+01  .000000000000D+00 -.121071934700D-07  .850000000000D+02
     .590406000000D+06  .400000000000D+01
12 09  2 14 22  0  0.0 -.315979588777D-03  .375166564481D-11  .000000000000D+00
     .580000000000D+02 -.272812500000D+02  .465019369923D-08  .287536112530D+00
    -.147335231304D-05  .321965548210D-02  .587850809097D-05  .515371380424D+04
     .597600000000D+06 -.186264514923D-08 -.608888876997D+00 -.502914190292D-07
     .966126185159D+00  .270468750000D+03 -.810778928951D+00 -.819319842246D-08
     .739316509786D-10  .100000000000D+01  .151800000000D+04  .000000000000D+00
     .240000000000D+01  .000000000000D+00 -.116415321827D-07  .580000000000D+02
     .590406000000D+06  .400000000000D+01
13 09  2 14 22  0  0.0  .288565643132D-03  .125055521494D-11  .000000000000D+00
     .960000000000D+02 -.630000000000D+02  .362015079381D-08  .259489608729D+01
    -.321120023727D-05  .379386125132D-02  .804290175438D-05  .515375679970D+04
     .597600000000D+06  .484287738800D-07 -.265334222466D+01 -.484287738800D-07
     .995476159063D+00  .237687500000D+03  .150638469330D+01 -.766674792225D-08
    -.284297556420D-09  .100000000000D+01  .151800000000D+04  .000000000000D+00
     .240000000000D+01  .000000000000D+00 -.111758708954D-07  .960000000000D+02
     .590406000000D+06  .400000000000D+01
14 09  2 14 22  0  0.0 -.154122710228D-03  .534328137292D-11  .000000000000D+00
     .490000000000D+02 -.501562500000D+02  .373372695329D-08  .221178983488D+01
    -.274367630482D-05  .438934890553D-02  .791065394878D-05  .515357668114D+04
     .597600000000D+06 -.298023223877D-07 -.267220406341D+01 -.894069671631D-07
     .989052738862D+00  .240750000000D+03 -.210329673459D+01 -.768317717803D-08
    -.237509893240D-09  .100000000000D+01  .151800000000D+04  .000000000000D+00
     .240000000000D+01  .000000000000D+00 -.931322574615D-08  .490000000000D+02
     .590406000000D+06  .400000000000D+01
